NORAD_CAT_ID,OBJECT_NAME,OBJECT_TYPE,EPOCH,MEAN_MOTION,ECCENTRICITY,INCLINATION,RA_OF_ASC_NODE,ARG_OF_PERICENTER,MEAN_ANOMALY,BSTAR,MEAN_MOTION_DOT,MEAN_MOTION_DDOT,TLE_LINE0,TLE_LINE1,TLE_LINE2,SEMIMAJOR_AXIS,PERIOD,APOGEE,PERIGEE,DECAYED
52350.0,STARLINK-3754,PAYLOAD,2022-08-18 08:00:01,15.08851121,0.0002182,53.2173,272.166,44.1384,328.5406,-0.0012506,-0.00020143,0.0,0 STARLINK-3754,1 52350U 22045V   22230.33334491 -.00020143  00000-0 -12506-2 0  9995,2 52350  53.2173 272.1660 0002182  44.1384 328.5406 15.08851121 19627,6917.846,95.437,541.221,538.202,0.0
52350.0,STARLINK-3754,PAYLOAD,2022-08-18 14:00:01,15.08824526,0.0002265,53.2173,271.0444,41.40600000000001,249.9776,0.0030202,0.00048087,0.0,0 STARLINK-3754,1 52350U 22045V   22230.58334491  .00048087  00000-0  30202-2 0  9990,2 52350  53.2173 271.0444 0002265  41.4060 249.9776 15.08824526  1309,6917.928000000001,95.439,541.36,538.226,0.0
52350.0,STARLINK-3754,PAYLOAD,2022-08-18 22:00:00,15.08833231,0.0002082,53.2176,269.5462,45.3126,257.6742,0.0021109,0.00033461,0.0,0 STARLINK-3754,1 52350U 22045V   22230.91667824  .00033461  00000-0  21109-2 0  9992,2 52350  53.2176 269.5462 0002082  45.3126 257.6742 15.08833231  1309,6917.901,95.438,541.206,538.326,0.0
52350.0,STARLINK-3754,PAYLOAD,2022-08-19 14:00:01,15.08814947,0.00022,53.2174,266.5552,39.5568,286.6399,0.0023919,0.00037959,0.0,0 STARLINK-3754,1 52350U 22045V   22231.58334491  .00037959  00000-0  23919-2 0  9994,2 52350  53.2174 266.5552 0002200  39.5568 286.6399 15.08814947  1304,6917.956999999999,95.439,541.344,538.3,0.0
52350.0,STARLINK-3754,PAYLOAD,2022-08-19 16:00:00,15.08838841,0.0002182,53.2173,266.1806,39.9299,19.1552,-0.00043417,-7.191e-05,0.0,0 STARLINK-3754,1 52350U 22045V   22231.66667824 -.00007191  00000-0 -43417-3 0  9995,2 52350  53.2173 266.1806 0002182  39.9299  19.1552 15.08838841 19820,6917.884,95.438,541.258,538.239,0.0
52350.0,STARLINK-3754,PAYLOAD,2022-08-19 22:00:00,15.08813737,0.0002000999999999,53.2176,265.0572,44.3741,293.4109,0.0024035,0.00038144,0.0,0 STARLINK-3754,1 52350U 22045V   22231.91667824  .00038144  00000-0  24035-2 0  9997,2 52350  53.2176 265.0572 0002001  44.3741 293.4109 15.08813737  1309,6917.9609999999975,95.439,541.21,538.441,0.0
52350.0,STARLINK-3754,PAYLOAD,2022-08-20 14:00:01,15.0882913,0.0002201,53.2172,262.0662,40.486,320.4733,0.0017804,0.00028153,0.0,0 STARLINK-3754,1 52350U 22045V   22232.58334491  .00028153  00000-0  17804-2 0  9997,2 52350  53.2172 262.0662 0002201  40.4860 320.4733 15.08829130  1312,6917.9140000000025,95.438,541.3009999999998,538.256,0.0
52350.0,STARLINK-3754,PAYLOAD,2022-08-20 22:00:00,15.08820321,0.0002000999999999,53.2171,260.5683,45.8802,326.6815,0.0026528,0.00042162,0.0,0 STARLINK-3754,1 52350U 22045V   22232.91667824  .00042162  00000-0  26528-2 0  9992,2 52350  53.2171 260.5683 0002001  45.8802 326.6815 15.08820321  1301,6917.941,95.439,541.19,538.4209999999998,0.0
52350.0,STARLINK-3754,PAYLOAD,2022-08-21 14:00:01,15.0882693,0.0002159,53.2166,257.5774,40.1571,355.5959,-0.00033995,-5.693e-05,0.0,0 STARLINK-3754,1 52350U 22045V   22233.58334491 -.00005693  00000-0 -33995-3 0  9994,2 52350  53.2166 257.5774 0002159  40.1571 355.5959 15.08826930 20119,6917.92,95.438,541.279,538.2919999999998,0.0
52350.0,STARLINK-3754,PAYLOAD,2022-08-21 22:00:00,15.08797452,0.000195,53.2165,256.0794,44.986,2.3537,0.0027085,0.00043031,0.0,0 STARLINK-3754,1 52350U 22045V   22233.91667824  .00043031  00000-0  27085-2 0  9998,2 52350  53.2165 256.0794 0001950  44.9860   2.3537 15.08797452  1300,6918.01,95.44,541.224,538.526,0.0
52350.0,STARLINK-3754,PAYLOAD,2022-08-22 12:00:00,15.0880264,0.0002209,53.2162,253.4629,41.5572,296.0324,0.0025792,0.00040957,0.0,0 STARLINK-3754,1 52350U 22045V   22234.50001157  .00040957  00000-0  25792-2 0  9992,2 52350  53.2162 253.4629 0002209  41.5572 296.0324 15.08802640  1308,6917.995,95.44,541.388,538.331,0.0
52350.0,STARLINK-3754,PAYLOAD,2022-08-22 22:00:00,15.08802586,0.0002026999999999,53.2159,251.5906,45.9376,36.1227,0.0026349,0.00041853,0.0,0 STARLINK-3754,1 52350U 22045V   22234.91667824  .00041853  00000-0  26349-2 0  9991,2 52350  53.2159 251.5906 0002027  45.9376  36.1227 15.08802586  1303,6917.995,95.44,541.262,538.457,0.0
52350.0,STARLINK-3754,PAYLOAD,2022-08-23 14:00:01,15.08827344,0.0002289,53.2156,248.5995,41.5919,63.615,0.00028147,4.193e-05,0.0,0 STARLINK-3754,1 52350U 22045V   22235.58334491  .00004193  00000-0  28147-3 0  9991,2 52350  53.2156 248.5995 0002289  41.5919  63.6150 15.08827344  1308,6917.919,95.438,541.368,538.201,0.0
52350.0,STARLINK-3754,PAYLOAD,2022-08-23 22:00:01,15.08809009,0.0002136,53.2157,247.1014,46.592,70.2677,0.0025236,0.0004007,0.0,0 STARLINK-3754,1 52350U 22045V   22235.91668981  .00040070  00000-0  25236-2 0  9991,2 52350  53.2157 247.1014 0002136  46.5920  70.2677 15.08809009  1300,6917.975,95.44,541.318,538.362,0.0
52350.0,STARLINK-3754,PAYLOAD,2022-08-24 14:00:01,15.08836951,0.0002399999999999,53.2156,244.1103,42.83,97.1253,-0.00020097,-3.485e-05,0.0,0 STARLINK-3754,1 52350U 22045V   22236.58334491 -.00003485  00000-0 -20097-3 0  9993,2 52350  53.2156 244.1103 0002400  42.8300  97.1253 15.08836951  1304,6917.89,95.438,541.415,538.094,0.0
52350.0,STARLINK-3754,PAYLOAD,2022-08-24 16:00:00,15.08851838,0.0002339,53.2157,243.7357,44.1061,188.7435,-0.0022537,-0.0003598999999999,0.0,0 STARLINK-3754,1 52350U 22045V   22236.66667824 -.00035990  00000-0 -22537-2 0  9997,2 52350  53.2157 243.7357 0002339  44.1061 188.7435 15.08851838 20571,6917.844,95.437,541.327,538.091,0.0
52350.0,STARLINK-3754,PAYLOAD,2022-08-24 22:00:00,15.08817078,0.0002254,53.2158,242.6123,47.5665,103.9861,0.0023684,0.00037583,0.0,0 STARLINK-3754,1 52350U 22045V   22236.91667824  .00037583  00000-0  23684-2 0  9997,2 52350  53.2158 242.6123 0002254  47.5665 103.9861 15.08817078  1304,6917.95,95.439,541.375,538.256,0.0
52350.0,STARLINK-3754,PAYLOAD,2022-08-25 06:00:02,15.08847322,0.0002443,53.2159,241.1173,46.1223,117.0787,-0.0014239,-0.00022884,0.0,0 STARLINK-3754,1 52350U 22045V   22237.25002315 -.00022884  00000-0 -14239-2 0  9999,2 52350  53.2159 241.1173 0002443  46.1223 117.0787 15.08847322 20667,6917.858,95.437,541.413,538.033,0.0
52350.0,STARLINK-3754,PAYLOAD,2022-08-25 14:00:01,15.08848525,0.0002492,53.2159,239.6209,44.3939,130.3342,-0.00077812,-0.00012654,0.0,0 STARLINK-3754,1 52350U 22045V   22237.58334491 -.00012654  00000-0 -77812-3 0  9999,2 52350  53.2159 239.6209 0002492  44.3939 130.3342 15.08848525  1308,6917.854,95.437,541.443,537.995,0.0
52350.0,STARLINK-3754,PAYLOAD,2022-08-25 22:00:00,15.08825492,0.0002349,53.2162,238.123,49.0926,137.2405,0.0021809,0.00034579,0.0,0 STARLINK-3754,1 52350U 22045V   22237.91667824  .00034579  00000-0  21809-2 0  9997,2 52350  53.2162 238.1230 0002349  49.0926 137.2405 15.08825492  1303,6917.925,95.438,541.415,538.165,0.0
52350.0,STARLINK-3754,PAYLOAD,2022-08-26 14:00:01,15.08859526,0.0002546,53.2162,235.1314,46.0857,163.5027,-0.0013468,-0.00021671,0.0,0 STARLINK-3754,1 52350U 22045V   22238.58335648 -.00021671  00000-0 -13468-2 0  9990,2 52350  53.2162 235.1314 0002546  46.0857 163.5027 15.08859526 20861,6917.821,95.436,541.447,537.924,0.0
52350.0,STARLINK-3754,PAYLOAD,2022-08-26 22:00:00,15.08834064,0.0002403,53.2165,233.6337,50.8994,170.2399,0.0021131,0.00033498,0.0,0 STARLINK-3754,1 52350U 22045V   22238.91667824  .00033498  00000-0  21131-2 0  9995,2 52350  53.2165 233.6337 0002403  50.8994 170.2399 15.08834064  1304,6917.899,95.438,541.4259999999998,538.101,0.0
52350.0,STARLINK-3754,PAYLOAD,2022-08-27 14:00:01,15.0886991,0.0002549999999999,53.2164,230.6421,47.7901,196.5597,-0.0017945999999999,-0.00028761,0.0,0 STARLINK-3754,1 52350U 22045V   22239.58334491 -.00028761  00000-0 -17946-2 0  9998,2 52350  53.2164 230.6421 0002550  47.7901 196.5597 15.08869910  1309,6917.7890000000025,95.436,541.418,537.89,0.0
52350.0,STARLINK-3754,PAYLOAD,2022-08-27 22:00:00,15.08853397,0.0002376,53.2167,229.1443,52.1635,203.8073,-0.00073895,-0.00012034,0.0,0 STARLINK-3754,1 52350U 22045V   22239.91667824 -.00012034  00000-0 -73895-3 0  9996,2 52350  53.2167 229.1443 0002376  52.1635 203.8073 15.08853397 21067,6917.839,95.437,541.3480000000002,538.061,0.0
52350.0,STARLINK-3754,PAYLOAD,2022-08-28 14:00:01,15.08852287,0.0002475,53.2165,226.1528,48.2594,230.9043,-0.0021529,-0.00034402,0.0,0 STARLINK-3754,1 52350U 22045V   22240.58334491 -.00034402  00000-0 -21529-2 0  9991,2 52350  53.2165 226.1528 0002475  48.2594 230.9043 15.08852287  1306,6917.843000000003,95.437,541.42,537.996,0.0
52350.0,STARLINK-3754,PAYLOAD,2022-08-28 22:00:00,15.08825893,0.000237,53.2167,224.6552,53.5981,237.164,0.0020188,0.00031976,0.0,0 STARLINK-3754,1 52350U 22045V   22240.91667824  .00031976  00000-0  20188-2 0  9998,2 52350  53.2167 224.6552 0002370  53.5981 237.1640 15.08825893  1306,6917.924,95.438,541.428,538.149,0.0
52350.0,STARLINK-3754,PAYLOAD,2022-08-29 06:00:02,15.08839691,0.000256,53.2166,223.1606,50.4048,252.0141,-0.00040208,-6.682e-05,0.0,0 STARLINK-3754,1 52350U 22045V   22241.25002315 -.00006682  00000-0 -40208-3 0  9998,2 52350  53.2166 223.1606 0002560  50.4048 252.0141 15.08839691 21260,6917.880999999999,95.438,541.5169999999998,537.975,0.0
52350.0,STARLINK-3754,PAYLOAD,2022-08-29 14:00:01,15.08860162,0.0002511,53.2164,221.6636,50.4077,263.5366,-0.0022586,-0.00036076,0.0,0 STARLINK-3754,1 52350U 22045V   22241.58334491 -.00036076  00000-0 -22586-2 0  9995,2 52350  53.2164 221.6636 0002511  50.4077 263.5366 15.08860162  1308,6917.819,95.436,541.4209999999998,537.947,0.0
52350.0,STARLINK-3754,PAYLOAD,2022-08-29 22:00:00,15.08844551,0.0002403,53.2166,220.1662,55.2979,270.251,0.00034773,5.251e-05,0.0,0 STARLINK-3754,1 52350U 22045V   22241.91667824  .00005251  00000-0  34773-3 0  9992,2 52350  53.2166 220.1662 0002403  55.2979 270.2510 15.08844551  1307,6917.866,95.437,541.394,538.069,0.0
